{
  "type": "FeatureCollection",
  "features": [
    {
      "type": "Feature",
      "properties": {
        "norad_id": 19071,
        "name": "OSCAR 32",
        "group": "nnss",
        "lat": 22.861834991690195,
        "lon": -163.60611177465813,
        "alt_km": 1035.5740443683299,
        "timestamp": "2025-12-04T03:47:54.811962+00:00",
        "meta_object_name": "OSCAR 32",
        "meta_object_id": "1988-033B",
        "meta_epoch": "2025-12-03T14:55:52.305024",
        "meta_mean_motion": 13.27952096,
        "meta_eccentricity": 0.0187597,
        "meta_inclination": 90.3226,
        "meta_ra_of_asc_node": 16.241,
        "meta_arg_of_pericenter": 192.1452,
        "meta_mean_anomaly": 284.473,
        "meta_ephemeris_type": 0,
        "meta_classification_type": "U",
        "meta_norad_cat_id": 19071,
        "meta_element_set_no": 999,
        "meta_rev_at_epoch": 82144,
        "meta_bstar": 0.00018323,
        "meta_mean_motion_dot": 9.9e-07,
        "meta_mean_motion_ddot": 0,
        "tle_line1": "1 19071U 88033B   25337.62213316  .00000099  00000+0  18323-3 0  9991",
        "tle_line2": "2 19071  90.3226  16.2410 0187597 192.1452 284.4730 13.27952096821448"
      },
      "geometry": {
        "type": "Point",
        "coordinates": [
          -163.60611177465813,
          22.861834991690195
        ]
      }
    },
    {
      "type": "Feature",
      "properties": {
        "norad_id": 19223,
        "name": "NOVA 2",
        "group": "nnss",
        "lat": 29.327340383512922,
        "lon": -101.72410111351265,
        "alt_km": 1180.338676029287,
        "timestamp": "2025-12-04T03:47:54.811976+00:00",
        "meta_object_name": "NOVA 2",
        "meta_object_id": "1988-052A",
        "meta_epoch": "2025-12-03T16:45:03.489120",
        "meta_mean_motion": 13.22934249,
        "meta_eccentricity": 0.0031308,
        "meta_inclination": 89.9873,
        "meta_ra_of_asc_node": 78.2836,
        "meta_arg_of_pericenter": 41.2492,
        "meta_mean_anomaly": 77.9771,
        "meta_ephemeris_type": 0,
        "meta_classification_type": "U",
        "meta_norad_cat_id": 19223,
        "meta_element_set_no": 999,
        "meta_rev_at_epoch": 80828,
        "meta_bstar": 0.00015875,
        "meta_mean_motion_dot": 7.6e-07,
        "meta_mean_motion_ddot": 0,
        "tle_line1": "1 19223U 88052A   25337.69795705  .00000076  00000+0  15875-3 0  9999",
        "tle_line2": "2 19223  89.9873  78.2836 0031308  41.2492  77.9771 13.22934249808287"
      },
      "geometry": {
        "type": "Point",
        "coordinates": [
          -101.72410111351265,
          29.327340383512922
        ]
      }
    },
    {
      "type": "Feature",
      "properties": {
        "norad_id": 19419,
        "name": "OSCAR 25",
        "group": "nnss",
        "lat": -20.031727299872824,
        "lon": 20.228728234247505,
        "alt_km": 1079.1783210228687,
        "timestamp": "2025-12-04T03:47:54.811986+00:00",
        "meta_object_name": "OSCAR 25",
        "meta_object_id": "1988-074A",
        "meta_epoch": "2025-12-03T16:00:26.803296",
        "meta_mean_motion": 13.42620611,
        "meta_eccentricity": 0.0094222,
        "meta_inclination": 90.0356,
        "meta_ra_of_asc_node": 20.214,
        "meta_arg_of_pericenter": 272.2051,
        "meta_mean_anomaly": 213.6208,
        "meta_ephemeris_type": 0,
        "meta_classification_type": "U",
        "meta_norad_cat_id": 19419,
        "meta_element_set_no": 999,
        "meta_rev_at_epoch": 82518,
        "meta_bstar": 0.00025406,
        "meta_mean_motion_dot": 1.56e-06,
        "meta_mean_motion_ddot": 0,
        "tle_line1": "1 19419U 88074A   25337.66697689  .00000156  00000+0  25406-3 0  9999",
        "tle_line2": "2 19419  90.0356  20.2140 0094222 272.2051 213.6208 13.42620611825188"
      },
      "geometry": {
        "type": "Point",
        "coordinates": [
          20.228728234247505,
          -20.031727299872824
        ]
      }
    },
    {
      "type": "Feature",
      "properties": {
        "norad_id": 19420,
        "name": "OSCAR 31",
        "group": "nnss",
        "lat": -43.42244284151297,
        "lon": -159.4709878269665,
        "alt_km": 1054.3642916803656,
        "timestamp": "2025-12-04T03:47:54.811996+00:00",
        "meta_object_name": "OSCAR 31",
        "meta_object_id": "1988-074B",
        "meta_epoch": "2025-12-03T16:31:36.132960",
        "meta_mean_motion": 13.42582331,
        "meta_eccentricity": 0.009246,
        "meta_inclination": 90.0372,
        "meta_ra_of_asc_node": 20.5625,
        "meta_arg_of_pericenter": 266.2526,
        "meta_mean_anomaly": 209.1114,
        "meta_ephemeris_type": 0,
        "meta_classification_type": "U",
        "meta_norad_cat_id": 19420,
        "meta_element_set_no": 999,
        "meta_rev_at_epoch": 82529,
        "meta_bstar": 0.00022384,
        "meta_mean_motion_dot": 1.38e-06,
        "meta_mean_motion_ddot": 0,
        "tle_line1": "1 19420U 88074B   25337.68861265  .00000138  00000+0  22384-3 0  9998",
        "tle_line2": "2 19420  90.0372  20.5625 0092460 266.2526 209.1114 13.42582331825295"
      },
      "geometry": {
        "type": "Point",
        "coordinates": [
          -159.4709878269665,
          -43.42244284151297
        ]
      }
    }
  ]
}